COSMOS 2419 (714)       
1 28915U 05050A   16249.64800487 -.00000004  00000-0  00000+0 0  9998
2 28915  65.3552  75.4476 0014989 359.5766 307.3870  2.13106509 83262
COSMOS 2425 (716)       
1 29670U 06062A   16250.20475225 -.00000040  00000-0  10000-3 0  9998
2 29670  65.5959 314.4325 0019833 341.4778  88.5333  2.13104935 75487
COSMOS 2426 (717)       
1 29671U 06062B   16249.70033763 -.00000040  00000-0  10000-3 0  9999
2 29671  65.6137 314.5331 0018768 169.2637  94.0977  2.13102915 75472
COSMOS 2424 (715)       
1 29672U 06062C   16249.58131281 -.00000039  00000-0  10000-3 0  9998
2 29672  65.5984 314.4631 0018108 168.2800 179.9160  2.13102359 75461
COSMOS 2433 (720)       
1 32275U 07052A   16249.79853020 -.00000003  00000-0  10000-3 0  9997
2 32275  65.3727  75.2151 0000759 198.1648 112.2874  2.13104753 68982
COSMOS 2432 (719)       
1 32276U 07052B   16250.16611523 -.00000001  00000-0  10000-3 0  9999
2 32276  65.3854  75.2695 0010556 347.5693 198.5322  2.13104127 68994
COSMOS 2434 (721)       
1 32393U 07065A   16249.19658137 -.00000039  00000-0  00000-0 0  9993
2 32393  65.2135 313.7506 0004341 138.3428 321.7656  2.13102905 67680
COSMOS 2436 (723)       
1 32395U 07065C   16249.68492037 -.00000039  00000-0  10000-3 0  9998
2 32395  65.2267 313.7784 0015208 349.3626 217.4037  2.13102898 67623
COSMOS 2443 (725)       
1 33379U 08046B   16250.04702620 -.00000002  00000-0  10000-3 0  9995
2 33379  65.3051  74.6147 0017065 179.7395 225.4101  2.13101093 61862
COSMOS 2456 (730)       
1 36111U 09070A   16249.57681503  .00000025  00000-0  00000-0 0  9992
2 36111  64.1823 193.3117 0005833 301.2914 260.4310  2.13102949 52354
COSMOS 2457 (733)       
1 36112U 09070B   16249.72023630  .00000025  00000-0  00000+0 0  9990
2 36112  64.1651 193.2321 0006569 183.7819 257.8489  2.13101685 52368
COSMOS 2458 (734)       
1 36113U 09070C   16249.73058814  .00000025  00000-0  10000-3 0  9999
2 36113  64.1702 193.2380 0002115 302.2682 194.9234  2.13101888 52364
COSMOS 2459 (731)       
1 36400U 10007A   16249.66988800 -.00000004  00000-0  10000-3 0  9997
2 36400  65.2831  74.3604 0027519 357.5874  78.8363  2.13102256 50717
COSMOS 2461 (735)       
1 36401U 10007B   16250.19878545 -.00000001  00000-0  10000-3 0  9999
2 36401  65.2758  74.3224 0008487  77.1751 315.5960  2.13102338 50722
COSMOS 2460 (732)       
1 36402U 10007C   16249.60449422 -.00000005  00000-0  10000-3 0  9996
2 36402  65.2660  74.3196 0002327  94.5979 243.9629  2.13101834 50709
COSMOS 2465 (737)       
1 37138U 10041B   16250.41788488  .00000000  00000-0  10000-3 0  9994
2 37138  64.8138 313.8423 0036505 175.4921 184.6197  2.13102228 46801
COSMOS 2464 (736)       
1 37139U 10041C   16249.82537567 -.00000040  00000-0  00000-0 0  9999
2 37139  64.8205 313.8580 0020641  10.7931  79.4043  2.13102627 46799
COSMOS 2471 (701K)      
1 37372U 11009A   16249.67312203 -.00000004  00000-0  00000-0 0  9994
2 37372  65.2615  74.2653 0006669 224.4757 299.5915  2.13102780 42981
COSMOS 2474 (742)       
1 37829U 11055A   16250.07565803  .00000028  00000-0  00000+0 0  9998
2 37829  64.5065 193.7409 0010032 253.7143 191.7629  2.13101927 38362
COSMOS 2476 (744)       
1 37867U 11064A   16250.37344872  .00000044  00000-0  10000-3 0  9997
2 37867  64.4862 193.8094 0018715 247.6252 112.1772  2.13105241 37726
COSMOS 2477 (745)       
1 37868U 11064B   16249.56922387  .00000026  00000-0  00000+0 0  9995
2 37868  64.4953 193.8786 0016992 249.1803  32.9104  2.13101897 37653
COSMOS 2475 (743)       
1 37869U 11064C   16249.64367405  .00000026  00000-0  00000+0 0  9999
2 37869  64.5025 193.8639 0022271 273.5751  21.8236  2.13102191 37664
COSMOS 2485 (747)       
1 39155U 13019A   16249.64406041  .00000026  00000-0  00000+0 0  9991
2 39155  64.6562 193.8022 0019248 242.6907 322.6543  2.13102078 26178
COSMOS 2492 (754)       
1 39620U 14012A   16249.86187532 -.00000004  00000-0  10000-3 0  9999
2 39620  65.1570  74.2874 0013933 340.0054  65.8921  2.13103404 19136
COSMOS 2500 (755)       
1 40001U 14032A   16249.69289794 -.00000005  00000-0  00000-0 0  9997
2 40001  65.0963  74.3104 0005934 182.9432 316.9371  2.13102767 17349
COSMOS 2501 (702K)      
1 40315U 14075A   16249.81449127 -.00000042  00000-0  00000+0 0  9994
2 40315  64.5852 315.2908 0018846 232.1444 161.8934  2.13101673 13752
COSMOS 2514 (751)       
1 41330U 16008A   16250.20980874  .06606577  00000-0  10000-3 0  9999
2 41330  64.8763  74.5004 0008416 184.4489 175.5971  2.07432825  4523
COSMOS 2516 (753)       
1 41554U 16032A   16249.53543934 -.00000042  00000-0  00000-0 0  9996
2 41554  64.7663 314.9958 0013415 220.9978 231.6558  2.13101515  2116
